SITRO-AIS-65            
1 67266U 25313U   26014.46373943  .00005894  00000+0  27445-3 0  9993
2 67266  97.4142  91.6461 0015433 177.8809 182.2494 15.20193015  2570
2025-313V               
1 67267U 25313V   26014.52915951  .00005910  00000+0  27480-3 0  9990
2 67267  97.4123  91.6990 0014636 183.2540 176.8602 15.20250359  2580
ZORKY-2M 7              
1 67268U 25313W   26014.52978634  .00004622  00000+0  21623-3 0  9990
2 67268  97.4123  91.6966 0015597 178.4396 181.6891 15.20146078  2582
2025-313X               
1 67269U 25313X   26014.46300878  .00007939  00000+0  36706-3 0  9995
2 67269  97.4151  91.6486 0015436 177.0997 183.0331 15.20325752  2577
SITRO-TD-3              
1 67270U 25313Y   26014.46406680  .00005760  00000+0  26850-3 0  9994
2 67270  97.4125  91.6423 0015555 178.8303 181.2971 15.20163599  2572
2025-313Z               
1 67271U 25313Z   26014.53056760  .00003038  00000+0  14379-3 0  9992
2 67271  97.4118  91.6965 0015581 174.6207 185.5199 15.20009325  2588
2025-313AA              
1 67272U 25313AA  26014.52838429  .00005902  00000+0  27360-3 0  9998
2 67272  97.4123  91.6979 0015301 178.8895 181.2377 15.20345837  2581
2025-313AB              
1 67273U 25313AB  26014.53043199  .00002166  00000+0  10353-3 0  9995
2 67273  97.4136  91.6996 0014479 183.1051 177.0097 15.19995182  2587
2025-313AC              
1 67274U 25313AC  26014.52937053  .00003984  00000+0  18677-3 0  9992
2 67274  97.4111  91.7044 0015263 178.0597 182.0701 15.20158815  2580
2025-313AD              
1 67275U 25313AD  26014.46294724  .00004714  00000+0  22005-3 0  9999
2 67275  97.4086  91.6354 0014464 181.0367 179.0840 15.20220233  2579
2025-313AE              
1 67276U 25313AE  26014.46291285  .00004434  00000+0  20722-3 0  9992
2 67276  97.4091  91.6359 0014398 181.2118 178.9085 15.20218524  2572
2025-313AF              
1 67277U 25313AF  26014.46311730  .00004064  00000+0  19037-3 0  9997
2 67277  97.4093  91.6363 0014403 181.0083 179.1125 15.20185117  2575
