CCSDS_OMM_VERS = 2.0
CREATION_DATE  = 
ORIGINATOR     = 

OBJECT_NAME    = SITRO-AIS-65
OBJECT_ID      = 2025-313U
CENTER_NAME    = EARTH
REF_FRAME      = TEME
TIME_SYSTEM    = UTC
MEAN_ELEMENT_THEORY = SGP/SGP4

EPOCH          = 2026-01-14T11:07:47.086752
MEAN_MOTION    = 15.20193015
ECCENTRICITY   = .00154335
INCLINATION    = 97.4142
RA_OF_ASC_NODE = 91.6461
ARG_OF_PERICENTER = 177.8809
MEAN_ANOMALY   = 182.2494

EPHEMERIS_TYPE = 0
CLASSIFICATION_TYPE = U
NORAD_CAT_ID   = 67266
ELEMENT_SET_NO = 999
REV_AT_EPOCH   = 257
BSTAR          = .27444651E-3
MEAN_MOTION_DOT = .5894E-4
MEAN_MOTION_DDOT = 0

CCSDS_OMM_VERS = 2.0
CREATION_DATE  = 
ORIGINATOR     = 

OBJECT_NAME    = 2025-313V
OBJECT_ID      = 2025-313V
CENTER_NAME    = EARTH
REF_FRAME      = TEME
TIME_SYSTEM    = UTC
MEAN_ELEMENT_THEORY = SGP/SGP4

EPOCH          = 2026-01-14T12:41:59.381664
MEAN_MOTION    = 15.20250359
ECCENTRICITY   = .00146365
INCLINATION    = 97.4123
RA_OF_ASC_NODE = 91.6990
ARG_OF_PERICENTER = 183.2540
MEAN_ANOMALY   = 176.8602

EPHEMERIS_TYPE = 0
CLASSIFICATION_TYPE = U
NORAD_CAT_ID   = 67267
ELEMENT_SET_NO = 999
REV_AT_EPOCH   = 258
BSTAR          = .2747984E-3
MEAN_MOTION_DOT = .591E-4
MEAN_MOTION_DDOT = 0

CCSDS_OMM_VERS = 2.0
CREATION_DATE  = 
ORIGINATOR     = 

OBJECT_NAME    = ZORKY-2M 7
OBJECT_ID      = 2025-313W
CENTER_NAME    = EARTH
REF_FRAME      = TEME
TIME_SYSTEM    = UTC
MEAN_ELEMENT_THEORY = SGP/SGP4

EPOCH          = 2026-01-14T12:42:53.539776
MEAN_MOTION    = 15.20146078
ECCENTRICITY   = .00155979
INCLINATION    = 97.4123
RA_OF_ASC_NODE = 91.6966
ARG_OF_PERICENTER = 178.4396
MEAN_ANOMALY   = 181.6891

EPHEMERIS_TYPE = 0
CLASSIFICATION_TYPE = U
NORAD_CAT_ID   = 67268
ELEMENT_SET_NO = 999
REV_AT_EPOCH   = 258
BSTAR          = .21622643E-3
MEAN_MOTION_DOT = .4622E-4
MEAN_MOTION_DDOT = 0

CCSDS_OMM_VERS = 2.0
CREATION_DATE  = 
ORIGINATOR     = 

OBJECT_NAME    = 2025-313X
OBJECT_ID      = 2025-313X
CENTER_NAME    = EARTH
REF_FRAME      = TEME
TIME_SYSTEM    = UTC
MEAN_ELEMENT_THEORY = SGP/SGP4

EPOCH          = 2026-01-14T11:06:43.958592
MEAN_MOTION    = 15.20325752
ECCENTRICITY   = .0015436
INCLINATION    = 97.4151
RA_OF_ASC_NODE = 91.6486
ARG_OF_PERICENTER = 177.0997
MEAN_ANOMALY   = 183.0331

EPHEMERIS_TYPE = 0
CLASSIFICATION_TYPE = U
NORAD_CAT_ID   = 67269
ELEMENT_SET_NO = 999
REV_AT_EPOCH   = 257
BSTAR          = .3670552E-3
MEAN_MOTION_DOT = .7939E-4
MEAN_MOTION_DDOT = 0

CCSDS_OMM_VERS = 2.0
CREATION_DATE  = 
ORIGINATOR     = 

OBJECT_NAME    = SITRO-TD-3
OBJECT_ID      = 2025-313Y
CENTER_NAME    = EARTH
REF_FRAME      = TEME
TIME_SYSTEM    = UTC
MEAN_ELEMENT_THEORY = SGP/SGP4

EPOCH          = 2026-01-14T11:08:15.371520
MEAN_MOTION    = 15.20163599
ECCENTRICITY   = .00155554
INCLINATION    = 97.4125
RA_OF_ASC_NODE = 91.6423
ARG_OF_PERICENTER = 178.8303
MEAN_ANOMALY   = 181.2971

EPHEMERIS_TYPE = 0
CLASSIFICATION_TYPE = U
NORAD_CAT_ID   = 67270
ELEMENT_SET_NO = 999
REV_AT_EPOCH   = 257
BSTAR          = .26849816E-3
MEAN_MOTION_DOT = .576E-4
MEAN_MOTION_DDOT = 0

CCSDS_OMM_VERS = 2.0
CREATION_DATE  = 
ORIGINATOR     = 

OBJECT_NAME    = 2025-313Z
OBJECT_ID      = 2025-313Z
CENTER_NAME    = EARTH
REF_FRAME      = TEME
TIME_SYSTEM    = UTC
MEAN_ELEMENT_THEORY = SGP/SGP4

EPOCH          = 2026-01-14T12:44:01.040640
MEAN_MOTION    = 15.20009325
ECCENTRICITY   = .00155814
INCLINATION    = 97.4118
RA_OF_ASC_NODE = 91.6965
ARG_OF_PERICENTER = 174.6207
MEAN_ANOMALY   = 185.5199

EPHEMERIS_TYPE = 0
CLASSIFICATION_TYPE = U
NORAD_CAT_ID   = 67271
ELEMENT_SET_NO = 999
REV_AT_EPOCH   = 258
BSTAR          = .14379261E-3
MEAN_MOTION_DOT = .3038E-4
MEAN_MOTION_DDOT = 0

CCSDS_OMM_VERS = 2.0
CREATION_DATE  = 
ORIGINATOR     = 

OBJECT_NAME    = 2025-313AA
OBJECT_ID      = 2025-313AA
CENTER_NAME    = EARTH
REF_FRAME      = TEME
TIME_SYSTEM    = UTC
MEAN_ELEMENT_THEORY = SGP/SGP4

EPOCH          = 2026-01-14T12:40:52.402656
MEAN_MOTION    = 15.20345837
ECCENTRICITY   = .00153017
INCLINATION    = 97.4123
RA_OF_ASC_NODE = 91.6979
ARG_OF_PERICENTER = 178.8895
MEAN_ANOMALY   = 181.2377

EPHEMERIS_TYPE = 0
CLASSIFICATION_TYPE = U
NORAD_CAT_ID   = 67272
ELEMENT_SET_NO = 999
REV_AT_EPOCH   = 258
BSTAR          = .27359608E-3
MEAN_MOTION_DOT = .5902E-4
MEAN_MOTION_DDOT = 0

CCSDS_OMM_VERS = 2.0
CREATION_DATE  = 
ORIGINATOR     = 

OBJECT_NAME    = 2025-313AB
OBJECT_ID      = 2025-313AB
CENTER_NAME    = EARTH
REF_FRAME      = TEME
TIME_SYSTEM    = UTC
MEAN_ELEMENT_THEORY = SGP/SGP4

EPOCH          = 2026-01-14T12:43:49.323936
MEAN_MOTION    = 15.19995182
ECCENTRICITY   = .00144797
INCLINATION    = 97.4136
RA_OF_ASC_NODE = 91.6996
ARG_OF_PERICENTER = 183.1051
MEAN_ANOMALY   = 177.0097

EPHEMERIS_TYPE = 0
CLASSIFICATION_TYPE = U
NORAD_CAT_ID   = 67273
ELEMENT_SET_NO = 999
REV_AT_EPOCH   = 258
BSTAR          = .10353402E-3
MEAN_MOTION_DOT = .2166E-4
MEAN_MOTION_DDOT = 0

CCSDS_OMM_VERS = 2.0
CREATION_DATE  = 
ORIGINATOR     = 

OBJECT_NAME    = 2025-313AC
OBJECT_ID      = 2025-313AC
CENTER_NAME    = EARTH
REF_FRAME      = TEME
TIME_SYSTEM    = UTC
MEAN_ELEMENT_THEORY = SGP/SGP4

EPOCH          = 2026-01-14T12:42:17.613792
MEAN_MOTION    = 15.20158815
ECCENTRICITY   = .00152631
INCLINATION    = 97.4111
RA_OF_ASC_NODE = 91.7044
ARG_OF_PERICENTER = 178.0597
MEAN_ANOMALY   = 182.0701

EPHEMERIS_TYPE = 0
CLASSIFICATION_TYPE = U
NORAD_CAT_ID   = 67274
ELEMENT_SET_NO = 999
REV_AT_EPOCH   = 258
BSTAR          = .18676792E-3
MEAN_MOTION_DOT = .3984E-4
MEAN_MOTION_DDOT = 0

CCSDS_OMM_VERS = 2.0
CREATION_DATE  = 
ORIGINATOR     = 

OBJECT_NAME    = 2025-313AD
OBJECT_ID      = 2025-313AD
CENTER_NAME    = EARTH
REF_FRAME      = TEME
TIME_SYSTEM    = UTC
MEAN_ELEMENT_THEORY = SGP/SGP4

EPOCH          = 2026-01-14T11:06:38.641536
MEAN_MOTION    = 15.20220233
ECCENTRICITY   = .00144646
INCLINATION    = 97.4086
RA_OF_ASC_NODE = 91.6354
ARG_OF_PERICENTER = 181.0367
MEAN_ANOMALY   = 179.0840

EPHEMERIS_TYPE = 0
CLASSIFICATION_TYPE = U
NORAD_CAT_ID   = 67275
ELEMENT_SET_NO = 999
REV_AT_EPOCH   = 257
BSTAR          = .22004884E-3
MEAN_MOTION_DOT = .4714E-4
MEAN_MOTION_DDOT = 0

CCSDS_OMM_VERS = 2.0
CREATION_DATE  = 
ORIGINATOR     = 

OBJECT_NAME    = 2025-313AE
OBJECT_ID      = 2025-313AE
CENTER_NAME    = EARTH
REF_FRAME      = TEME
TIME_SYSTEM    = UTC
MEAN_ELEMENT_THEORY = SGP/SGP4

EPOCH          = 2026-01-14T11:06:35.670240
MEAN_MOTION    = 15.20218524
ECCENTRICITY   = .00143981
INCLINATION    = 97.4091
RA_OF_ASC_NODE = 91.6359
ARG_OF_PERICENTER = 181.2118
MEAN_ANOMALY   = 178.9085

EPHEMERIS_TYPE = 0
CLASSIFICATION_TYPE = U
NORAD_CAT_ID   = 67276
ELEMENT_SET_NO = 999
REV_AT_EPOCH   = 257
BSTAR          = .20721577E-3
MEAN_MOTION_DOT = .4434E-4
MEAN_MOTION_DDOT = 0

CCSDS_OMM_VERS = 2.0
CREATION_DATE  = 
ORIGINATOR     = 

OBJECT_NAME    = 2025-313AF
OBJECT_ID      = 2025-313AF
CENTER_NAME    = EARTH
REF_FRAME      = TEME
TIME_SYSTEM    = UTC
MEAN_ELEMENT_THEORY = SGP/SGP4

EPOCH          = 2026-01-14T11:06:53.334720
MEAN_MOTION    = 15.20185117
ECCENTRICITY   = .0014403
INCLINATION    = 97.4093
RA_OF_ASC_NODE = 91.6363
ARG_OF_PERICENTER = 181.0083
MEAN_ANOMALY   = 179.1125

EPHEMERIS_TYPE = 0
CLASSIFICATION_TYPE = U
NORAD_CAT_ID   = 67277
ELEMENT_SET_NO = 999
REV_AT_EPOCH   = 257
BSTAR          = .1903685E-3
MEAN_MOTION_DOT = .4064E-4
MEAN_MOTION_DDOT = 0

